STARLINK-1850
1 27138C 20088S   21325.13062244  .00001073  00000-0  71935-4 0  3259
2 27138  53.0536 142.6298 0001795  77.0341 313.0990 15.06387352    19
